SPACEMOBILE-003         
1 61045U 24163A   26177.81235899  .00001689  00000+0  90246-4 0  9998
2 61045  52.9744 265.1828 0005991 141.0621 219.0806 15.20822722 99230
SPACEMOBILE-005         
1 61046U 24163B   26179.70145072  .00008860  00000+0  41025-3 0  9990
2 61046  52.9813 256.4239 0009177 143.4364 216.7259 15.20835381 99519
SPACEMOBILE-001         
1 61047U 24163C   26179.70013740  .00002811  00000+0  14026-3 0  9998
2 61047  52.9755 256.1535 0008124 142.8727 217.2831 15.20849713 99514
SPACEMOBILE-002         
1 61048U 24163D   26179.94708386  .00002868  00000+0  14283-3 0  9999
2 61048  52.9734 255.0591 0007619 146.7993 213.3481 15.20848502 99555
SPACEMOBILE-004         
1 61049U 24163E   26179.92925161  .00004203  00000+0  20268-3 0  9995
2 61049  52.9680 254.9280 0008745 175.5356 184.5717 15.20802895 99559
SPACEMOBILE-001 DEB     
1 62369U 24163F   26179.51400980  .00007042  00000+0  21438-3 0  9997
2 62369  52.9928 225.9095 0006647 192.3482 167.7357 15.35124355 88249
SPACEMOBILE-002 DEB     
1 62370U 24163G   26179.58078426  .00015620  00000+0  35445-3 0  9996
2 62370  52.9399 210.7992 0004876 222.7131 137.3494 15.43247700100128
SPACEMOBILE-003 DEB     
1 62371U 24163H   26179.39583784  .00016328  00000+0  39860-3 0  9995
2 62371  52.9680 218.2603 0006310 178.8768 181.2250 15.41002110 93611
SPACEMOBILE-004 DEB     
1 62372U 24163J   26179.79569041  .00011564  00000+0  29156-3 0  9994
2 62372  52.9823 215.9052 0003430 197.6315 162.4569 15.40351945 96743
SPACEMOBILE-005 DEB     
1 62373U 24163K   26179.52829279  .00007800  00000+0  24181-3 0  9999
2 62373  52.9739 230.6894 0006707 172.8441 187.2656 15.34382462 99862
SPACEMOBILE-006         
1 67232U 25309A   26179.56058032  .00003112  00000+0  16372-3 0  9991
2 67232  52.9972 279.5367 0011136 161.3615 198.7789 15.18599633 28324
SPACEMOBILE-008         
1 69589U 26139A   26179.57029980  .00000526  00000+0  46573-4 0  9994
2 69589  52.9934 210.8864 0004084  14.5064 345.6044 15.12781878  1708
SPACEMOBILE-009         
1 69590U 26139B   26179.57108901  .00000491  00000+0  44745-4 0  9997
2 69590  52.9926 210.8877 0004271   8.7059 351.4006 15.12675353  1705
SPACEMOBILE-010         
1 69591U 26139C   26179.57234500  .00000463  00000+0  43294-4 0  9990
2 69591  52.9932 210.8977 0004127 358.6572   1.4407 15.12506612  1710
